[{"OBJECT_NAME":"STARLINK-4013","OBJECT_ID":"2022-052G","EPOCH":"2026-03-09T20:30:30.121056","MEAN_MOTION":15.08847109,"ECCENTRICITY":0.00011922,"INCLINATION":53.2159,"RA_OF_ASC_NODE":278.3851,"ARG_OF_PERICENTER":87.7499,"MEAN_ANOMALY":272.3629,"EPHEMERIS_TYPE":0,"CLASSIFICATION_TYPE":"U","NORAD_CAT_ID":52604,"ELEMENT_SET_NO":999,"REV_AT_EPOCH":21088,"BSTAR":8.4037137e-5,"MEAN_MOTION_DOT":1.05e-5,"MEAN_MOTION_DDOT":0},{"OBJECT_NAME":"CZ-4B DEB","OBJECT_ID":"2008-053L","EPOCH":"2026-03-08T19:52:33.417984","MEAN_MOTION":15.09778257,"ECCENTRICITY":0.00077037,"INCLINATION":97.7892,"RA_OF_ASC_NODE":87.441,"ARG_OF_PERICENTER":237.5543,"MEAN_ANOMALY":122.4941,"EPHEMERIS_TYPE":0,"CLASSIFICATION_TYPE":"U","NORAD_CAT_ID":36290,"ELEMENT_SET_NO":999,"REV_AT_EPOCH":71411,"BSTAR":0.00021001,"MEAN_MOTION_DOT":3.326e-5,"MEAN_MOTION_DDOT":0}]
